{"type": "FeatureCollection", "features": [ {"type": "Feature", "properties": {"norad_id": 34375, "name": "IRIDIUM 33 DEB", "group": "iridium-33-debris", "lat": -55.719500272853935, "lon": 177.16366058656806, "alt_km": 913.7927640052076, "timestamp": "2025-12-13T10:41:26.150871+00:00", "meta": {"OBJECT_NAME": "IRIDIUM 33 DEB", "OBJECT_ID": "1997-051FT", "EPOCH": "2025-12-12T23:49:03.895680", "MEAN_MOTION": 14.17992706, "ECCENTRICITY": 0.01033277, "INCLINATION": 86.4327, "RA_OF_ASC_NODE": 182.597, "ARG_OF_PERICENTER": 125.9322, "MEAN_ANOMALY": 27.0467, "EPHEMERIS_TYPE": 0, "CLASSIFICATION_TYPE": "U", "NORAD_CAT_ID": 34375, "ELEMENT_SET_NO": 999, "REV_AT_EPOCH": 86715, "BSTAR": 0.00059451222, "MEAN_MOTION_DOT": 1.302e-05, "MEAN_MOTION_DDOT": 0}, "tle": {"line1": "1 34375U 97051FT  25346.99240620  .00001302  00000+0  59451-3 0  9998", "line2": "2 34375  86.4327 182.5970 0103327 125.9322  27.0467 14.17992706867155"}}, "geometry": {"type": "Point", "coordinates": [177.16366058656806, -55.719500272853935]}}, {"type": "Feature", "properties": {"norad_id": 34376, "name": "IRIDIUM 33 DEB", "group": "iridium-33-debris", "lat": 68.96986142570647, "lon": 15.915501846535335, "alt_km": 679.8385163636676, "timestamp": "2025-12-13T10:41:26.150882+00:00", "meta": {"OBJECT_NAME": "IRIDIUM 33 DEB", "OBJECT_ID": "1997-051FU", "EPOCH": "2025-12-12T19:35:45.071232", "MEAN_MOTION": 14.62570481, "ECCENTRICITY": 0.00271711, "INCLINATION": 86.2989, "RA_OF_ASC_NODE": 6.5056, "ARG_OF_PERICENTER": 166.3978, "MEAN_ANOMALY": 193.7972, "EPHEMERIS_TYPE": 0, "CLASSIFICATION_TYPE": "U", "NORAD_CAT_ID": 34376, "ELEMENT_SET_NO": 999, "REV_AT_EPOCH": 88008, "BSTAR": 0.0020216888, "MEAN_MOTION_DOT": 0.00010344, "MEAN_MOTION_DDOT": 0}, "tle": {"line1": "1 34376U 97051FU  25346.81649388  .00010344  00000+0  20217-2 0  9997", "line2": "2 34376  86.2989   6.5056 0027171 166.3978 193.7972 14.62570481880087"}}, "geometry": {"type": "Point", "coordinates": [15.915501846535335, 68.96986142570647]}}, {"type": "Feature", "properties": {"norad_id": 34486, "name": "IRIDIUM 33 DEB", "group": "iridium-33-debris", "lat": 10.27364897850518, "lon": 12.354220114247472, "alt_km": 583.1915332924418, "timestamp": "2025-12-13T10:41:26.150892+00:00", "meta": {"OBJECT_NAME": "IRIDIUM 33 DEB", "OBJECT_ID": "1997-051GB", "EPOCH": "2025-12-12T20:43:41.056032", "MEAN_MOTION": 14.95813552, "ECCENTRICITY": 0.00136453, "INCLINATION": 86.394, "RA_OF_ASC_NODE": 11.9677, "ARG_OF_PERICENTER": 113.2535, "MEAN_ANOMALY": 6.5669, "EPHEMERIS_TYPE": 0, "CLASSIFICATION_TYPE": "U", "NORAD_CAT_ID": 34486, "ELEMENT_SET_NO": 999, "REV_AT_EPOCH": 88988, "BSTAR": 0.0029287104, "MEAN_MOTION_DOT": 0.0003288, "MEAN_MOTION_DDOT": 0}, "tle": {"line1": "1 34486U 97051GB  25346.86366963  .00032880  00000+0  29287-2 0  9994", "line2": "2 34486  86.3940  11.9677 0013645 113.2535   6.5669 14.95813552889883"}}, "geometry": {"type": "Point", "coordinates": [12.354220114247472, 10.27364897850518]}}, {"type": "Feature", "properties": {"norad_id": 34487, "name": "IRIDIUM 33 DEB", "group": "iridium-33-debris", "lat": -72.4347869100495, "lon": -156.27161950646098, "alt_km": 769.1916737313477, "timestamp": "2025-12-13T10:41:26.150902+00:00", "meta": {"OBJECT_NAME": "IRIDIUM 33 DEB", "OBJECT_ID": "1997-051GC", "EPOCH": "2025-12-12T20:46:06.073248", "MEAN_MOTION": 14.43216615, "ECCENTRICITY": 0.00327589, "INCLINATION": 86.3434, "RA_OF_ASC_NODE": 12.3232, "ARG_OF_PERICENTER": 127.97, "MEAN_ANOMALY": 352.4945, "EPHEMERIS_TYPE": 0, "CLASSIFICATION_TYPE": "U", "NORAD_CAT_ID": 34487, "ELEMENT_SET_NO": 999, "REV_AT_EPOCH": 88250, "BSTAR": 0.00028346709, "MEAN_MOTION_DOT": 9.79e-06, "MEAN_MOTION_DDOT": 0}, "tle": {"line1": "1 34487U 97051GC  25346.86534807  .00000979  00000+0  28347-3 0  9990", "line2": "2 34487  86.3434  12.3232 0032758 127.9700 352.4945 14.43216615882508"}}, "geometry": {"type": "Point", "coordinates": [-156.27161950646098, -72.4347869100495]}}, {"type": "Feature", "properties": {"norad_id": 34488, "name": "IRIDIUM 33 DEB", "group": "iridium-33-debris", "lat": 78.79655851301975, "lon": -35.59162525534403, "alt_km": 461.77184744229453, "timestamp": "2025-12-13T10:41:26.150912+00:00", "meta": {"OBJECT_NAME": "IRIDIUM 33 DEB", "OBJECT_ID": "1997-051GD", "EPOCH": "2025-12-12T09:13:17.706144", "MEAN_MOTION": 15.29287842, "ECCENTRICITY": 0.0013375, "INCLINATION": 86.3234, "RA_OF_ASC_NODE": 305.9899, "ARG_OF_PERICENTER": 52.1887, "MEAN_ANOMALY": 308.0569, "EPHEMERIS_TYPE": 0, "CLASSIFICATION_TYPE": "U", "NORAD_CAT_ID": 34488, "ELEMENT_SET_NO": 999, "REV_AT_EPOCH": 89234, "BSTAR": 0.0061124826, "MEAN_MOTION_DOT": 0.00177845, "MEAN_MOTION_DDOT": 0}, "tle": {"line1": "1 34488U 97051GD  25346.38423271  .00177845  00000+0  61125-2 0  9997", "line2": "2 34488  86.3234 305.9899 0013375  52.1887 308.0569 15.29287842892343"}}, "geometry": {"type": "Point", "coordinates": [-35.59162525534403, 78.79655851301975]}}, {"type": "Feature", "properties": {"norad_id": 34492, "name": "IRIDIUM 33 DEB", "group": "iridium-33-debris", "lat": -60.03333401992495, "lon": -31.797990821595196, "alt_km": 751.4626349657647, "timestamp": "2025-12-13T10:41:26.150923+00:00", "meta": {"OBJECT_NAME": "IRIDIUM 33 DEB", "OBJECT_ID": "1997-051GH", "EPOCH": "2025-12-12T23:19:24.163680", "MEAN_MOTION": 14.25737057, "ECCENTRICITY": 0.01891196, "INCLINATION": 86.4723, "RA_OF_ASC_NODE": 334.5351, "ARG_OF_PERICENTER": 237.4159, "MEAN_ANOMALY": 151.0038, "EPHEMERIS_TYPE": 0, "CLASSIFICATION_TYPE": "U", "NORAD_CAT_ID": 34492, "ELEMENT_SET_NO": 999, "REV_AT_EPOCH": 85062, "BSTAR": 0.0063651158, "MEAN_MOTION_DOT": 0.00018276, "MEAN_MOTION_DDOT": 0}, "tle": {"line1": "1 34492U 97051GH  25346.97180745  .00018276  00000+0  63651-2 0  9991", "line2": "2 34492  86.4723 334.5351 0189119 237.4159 151.0038 14.25737057850628"}}, "geometry": {"type": "Point", "coordinates": [-31.797990821595196, -60.03333401992495]}}, {"type": "Feature", "properties": {"norad_id": 34497, "name": "IRIDIUM 33 DEB", "group": "iridium-33-debris", "lat": -0.37295702326820146, "lon": -127.87543424725125, "alt_km": 855.3383012224558, "timestamp": "2025-12-13T10:41:26.150933+00:00", "meta": {"OBJECT_NAME": "IRIDIUM 33 DEB", "OBJECT_ID": "1997-051GN", "EPOCH": "2025-12-12T22:54:15.485760", "MEAN_MOTION": 14.27454952, "ECCENTRICITY": 0.00787666, "INCLINATION": 86.2781, "RA_OF_ASC_NODE": 52.31, "ARG_OF_PERICENTER": 338.886, "MEAN_ANOMALY": 199.6428, "EPHEMERIS_TYPE": 0, "CLASSIFICATION_TYPE": "U", "NORAD_CAT_ID": 34497, "ELEMENT_SET_NO": 999, "REV_AT_EPOCH": 86886, "BSTAR": 0.00092375245, "MEAN_MOTION_DOT": 2.36e-05, "MEAN_MOTION_DDOT": 0}, "tle": {"line1": "1 34497U 97051GN  25346.95434590  .00002360  00000+0  92375-3 0  9997", "line2": "2 34497  86.2781  52.3100 0078766 338.8860 199.6428 14.27454952868860"}}, "geometry": {"type": "Point", "coordinates": [-127.87543424725125, -0.37295702326820146]}}, {"type": "Feature", "properties": {"norad_id": 34508, "name": "IRIDIUM 33 DEB", "group": "iridium-33-debris", "lat": 6.159714749907902, "lon": 102.73619756902202, "alt_km": 811.3020678296871, "timestamp": "2025-12-13T10:41:26.150943+00:00", "meta": {"OBJECT_NAME": "IRIDIUM 33 DEB", "OBJECT_ID": "1997-051GZ", "EPOCH": "2025-12-12T17:57:57.853728", "MEAN_MOTION": 14.3842932, "ECCENTRICITY": 0.00660592, "INCLINATION": 86.3696, "RA_OF_ASC_NODE": 102.6391, "ARG_OF_PERICENTER": 172.9661, "MEAN_ANOMALY": 187.2481, "EPHEMERIS_TYPE": 0, "CLASSIFICATION_TYPE": "U", "NORAD_CAT_ID": 34508, "ELEMENT_SET_NO": 999, "REV_AT_EPOCH": 87309, "BSTAR": 0.002129503, "MEAN_MOTION_DOT": 6.683e-05, "MEAN_MOTION_DDOT": 0}, "tle": {"line1": "1 34508U 97051GZ  25346.74858627  .00006683  00000+0  21295-2 0  9992", "line2": "2 34508  86.3696 102.6391 0066059 172.9661 187.2481 14.38429320873094"}}, "geometry": {"type": "Point", "coordinates": [102.73619756902202, 6.159714749907902]}}, {"type": "Feature", "properties": {"norad_id": 34521, "name": "IRIDIUM 33 DEB", "group": "iridium-33-debris", "lat": -67.31303347031894, "lon": -141.0533357342072, "alt_km": 688.7606606085774, "timestamp": "2025-12-13T10:41:26.150953+00:00", "meta": {"OBJECT_NAME": "IRIDIUM 33 DEB", "OBJECT_ID": "1997-051HN", "EPOCH": "2025-12-12T20:26:01.801536", "MEAN_MOTION": 14.6337022, "ECCENTRICITY": 0.00015553, "INCLINATION": 86.3804, "RA_OF_ASC_NODE": 30.4988, "ARG_OF_PERICENTER": 212.1757, "MEAN_ANOMALY": 147.936, "EPHEMERIS_TYPE": 0, "CLASSIFICATION_TYPE": "U", "NORAD_CAT_ID": 34521, "ELEMENT_SET_NO": 999, "REV_AT_EPOCH": 88474, "BSTAR": 0.0012860068, "MEAN_MOTION_DOT": 6.666e-05, "MEAN_MOTION_DDOT": 0}, "tle": {"line1": "1 34521U 97051HN  25346.85140974  .00006666  00000+0  12860-2 0  9997", "line2": "2 34521  86.3804  30.4988 0001555 212.1757 147.9360 14.63370220884748"}}, "geometry": {"type": "Point", "coordinates": [-141.0533357342072, -67.31303347031894]}}, {"type": "Feature", "properties": {"norad_id": 34525, "name": "IRIDIUM 33 DEB", "group": "iridium-33-debris", "lat": 14.424911709930482, "lon": 47.477370047561905, "alt_km": 748.944083566782, "timestamp": "2025-12-13T10:41:26.150964+00:00", "meta": {"OBJECT_NAME": "IRIDIUM 33 DEB", "OBJECT_ID": "1997-051HS", "EPOCH": "2025-12-12T15:21:36.053568", "MEAN_MOTION": 14.42905953, "ECCENTRICITY": 0.00066523, "INCLINATION": 86.373, "RA_OF_ASC_NODE": 46.8862, "ARG_OF_PERICENTER": 95.5071, "MEAN_ANOMALY": 57.9637, "EPHEMERIS_TYPE": 0, "CLASSIFICATION_TYPE": "U", "NORAD_CAT_ID": 34525, "ELEMENT_SET_NO": 999, "REV_AT_EPOCH": 88086, "BSTAR": 0.00058911832, "MEAN_MOTION_DOT": 1.988e-05, "MEAN_MOTION_DDOT": 0}, "tle": {"line1": "1 34525U 97051HS  25346.64000062  .00001988  00000+0  58912-3 0  9992", "line2": "2 34525  86.3730  46.8862 0006652  95.5071  57.9637 14.42905953880867"}}, "geometry": {"type": "Point", "coordinates": [47.477370047561905, 14.424911709930482]}}]}